start=new Date('2022-02-15T00:00:00.000Z').valueOf();
sats=[{"BSTAR":"0.00023581000000","MEAN_MOTION_DDOT":"0.0000000000000","CENTER_NAME":"EARTH","OBJECT_TYPE":"PAYLOAD","PERIOD":"95.592","SEMIMAJOR_AXIS":"6925.356","OBJECT_NAME":"STARLINK-1502","FILE":"3300727","MEAN_MOTION_DOT":"0.00003232","PERIAPSIS":"546.156","TLE_LINE1":"1 45764U 20038AL  22045.70616440  .00003232  00000-0  23581-3 0  9992","LAUNCH_DATE":"2020-06-13","REV_AT_EPOCH":"9281","OBJECT_ID":"2020-038AL","RCS_SIZE":"LARGE","ECCENTRICITY":"0.00015380","CLASSIFICATION_TYPE":"U","NORAD_CAT_ID":"45764","EPOCH":"2022-02-14T16:56:52.604160","COUNTRY_CODE":"US","EPHEMERIS_TYPE":"0","TIME_SYSTEM":"UTC","MEAN_ANOMALY":"304.2956","SITE":"AFETR","APOAPSIS":"548.286","REF_FRAME":"TEME","MEAN_MOTION":"15.06397459","DECAY_DATE":null,"TLE_LINE2":"2 45764  53.0558  38.4737 0001538  55.8178 304.2956 15.06397459 92815","GP_ID":"195964870","RA_OF_ASC_NODE":"38.4737","MEAN_ELEMENT_THEORY":"SGP4","INCLINATION":"53.0558","ARG_OF_PERICENTER":"55.8178","ELEMENT_SET_NO":"999"},{"PERIAPSIS":"545.900","MEAN_MOTION_DOT":"0.00000237","LAUNCH_DATE":"2020-06-13","REV_AT_EPOCH":"9279","TLE_LINE1":"1 45766U 20038AN  22045.69510539  .00000237  00000-0  34840-4 0  9997","ECCENTRICITY":"0.00019130","OBJECT_ID":"2020-038AN","RCS_SIZE":"LARGE","BSTAR":"0.00003484000000","CENTER_NAME":"EARTH","OBJECT_TYPE":"PAYLOAD","SEMIMAJOR_AXIS":"6925.360","PERIOD":"95.592","MEAN_MOTION_DDOT":"0.0000000000000","FILE":"3300727","OBJECT_NAME":"STARLINK-1509","REF_FRAME":"TEME","MEAN_MOTION":"15.06396275","SITE":"AFETR","APOAPSIS":"548.550","TLE_LINE2":"2 45766  53.0549  38.5331 0001913  54.7600 305.3568 15.06396275 92796","GP_ID":"195965120","RA_OF_ASC_NODE":"38.5331","DECAY_DATE":null,"ARG_OF_PERICENTER":"54.7600","MEAN_ELEMENT_THEORY":"SGP4","INCLINATION":"53.0549","ELEMENT_SET_NO":"999","CLASSIFICATION_TYPE":"U","NORAD_CAT_ID":"45766","MEAN_ANOMALY":"305.3568","EPOCH":"2022-02-14T16:40:57.105696","COUNTRY_CODE":"US","EPHEMERIS_TYPE":"0","TIME_SYSTEM":"UTC"},{"NORAD_CAT_ID":"45767","CLASSIFICATION_TYPE":"U","EPOCH":"2022-02-14T16:30:19.465920","COUNTRY_CODE":"US","EPHEMERIS_TYPE":"0","TIME_SYSTEM":"UTC","MEAN_ANOMALY":"306.2063","DECAY_DATE":null,"TLE_LINE2":"2 45767  53.0561  38.5670 0001647  53.9078 306.2063 15.06397354 92790","RA_OF_ASC_NODE":"38.5670","GP_ID":"195965370","SITE":"AFETR","APOAPSIS":"548.362","MEAN_MOTION":"15.06397354","REF_FRAME":"TEME","ELEMENT_SET_NO":"999","MEAN_ELEMENT_THEORY":"SGP4","INCLINATION":"53.0561","ARG_OF_PERICENTER":"53.9078","BSTAR":"0.00001279500000","OBJECT_NAME":"STARLINK-1511","FILE":"3300727","MEAN_MOTION_DDOT":"0.0000000000000","OBJECT_TYPE":"PAYLOAD","CENTER_NAME":"EARTH","PERIOD":"95.592","SEMIMAJOR_AXIS":"6925.357","TLE_LINE1":"1 45767U 20038AP  22045.68772530 -.00000091  00000-0  12795-4 0  9992","REV_AT_EPOCH":"9279","LAUNCH_DATE":"2020-06-13","MEAN_MOTION_DOT":"-0.00000091","PERIAPSIS":"546.081","OBJECT_ID":"2020-038AP","RCS_SIZE":"LARGE","ECCENTRICITY":"0.00016470"},{"PERIAPSIS":"546.124","MEAN_MOTION_DOT":"0.00003147","REV_AT_EPOCH":"9280","LAUNCH_DATE":"2020-06-13","TLE_LINE1":"1 45768U 20038AQ  22045.66930471  .00003147  00000-0  23012-3 0  9998","ECCENTRICITY":"0.00015890","OBJECT_ID":"2020-038AQ","RCS_SIZE":"LARGE","BSTAR":"0.00023012000000","CENTER_NAME":"EARTH","OBJECT_TYPE":"PAYLOAD","SEMIMAJOR_AXIS":"6925.360","PERIOD":"95.592","MEAN_MOTION_DDOT":"0.0000000000000","FILE":"3300727","OBJECT_NAME":"STARLINK-1521","REF_FRAME":"TEME","MEAN_MOTION":"15.06396355","SITE":"AFETR","APOAPSIS":"548.325","TLE_LINE2":"2 45768  53.0551  38.6589 0001589  56.2638 303.8502 15.06396355 92806","RA_OF_ASC_NODE":"38.6589","GP_ID":"195964120","DECAY_DATE":null,"ARG_OF_PERICENTER":"56.2638","MEAN_ELEMENT_THEORY":"SGP4","INCLINATION":"53.0551","ELEMENT_SET_NO":"999","CLASSIFICATION_TYPE":"U","NORAD_CAT_ID":"45768","MEAN_ANOMALY":"303.8502","EPOCH":"2022-02-14T16:03:47.926944","TIME_SYSTEM":"UTC","COUNTRY_CODE":"US","EPHEMERIS_TYPE":"0"},{"DECAY_DATE":null,"RA_OF_ASC_NODE":"58.2467","GP_ID":"195964370","TLE_LINE2":"2 45769  53.0537  58.2467 0001774  57.1238 302.9921 15.06388749 92539","APOAPSIS":"548.477","SITE":"AFETR","REF_FRAME":"TEME","MEAN_MOTION":"15.06388749","ELEMENT_SET_NO":"999","INCLINATION":"53.0537","MEAN_ELEMENT_THEORY":"SGP4","ARG_OF_PERICENTER":"57.1238","NORAD_CAT_ID":"45769","CLASSIFICATION_TYPE":"U","COUNTRY_CODE":"US","TIME_SYSTEM":"UTC","EPHEMERIS_TYPE":"0","EPOCH":"2022-02-14T18:13:50.022336","MEAN_ANOMALY":"302.9921","TLE_LINE1":"1 45769U 20038AR  22045.75960674  .00000188  00000-0  31542-4 0  9997","LAUNCH_DATE":"2020-06-13","REV_AT_EPOCH":"9253","MEAN_MOTION_DOT":"0.00000188","PERIAPSIS":"546.019","RCS_SIZE":"LARGE","OBJECT_ID":"2020-038AR","ECCENTRICITY":"0.00017740","BSTAR":"0.00003154200000","OBJECT_NAME":"STARLINK-1459","FILE":"3300727","MEAN_MOTION_DDOT":"0.0000000000000","SEMIMAJOR_AXIS":"6925.383","PERIOD":"95.593","CENTER_NAME":"EARTH","OBJECT_TYPE":"PAYLOAD"},{"CENTER_NAME":"EARTH","OBJECT_TYPE":"PAYLOAD","SEMIMAJOR_AXIS":"6925.364","PERIOD":"95.592","MEAN_MOTION_DDOT":"0.0000000000000","FILE":"3300727","OBJECT_NAME":"STARLINK-1462","BSTAR":"0.00006309400000","ECCENTRICITY":"0.00017050","OBJECT_ID":"2020-038AS","RCS_SIZE":"LARGE","PERIAPSIS":"546.049","MEAN_MOTION_DOT":"0.00000658","REV_AT_EPOCH":"9306","LAUNCH_DATE":"2020-06-13","TLE_LINE1":"1 45770U 20038AS  22045.62965584  .00000658  00000-0  63094-4 0  9999","MEAN_ANOMALY":"295.7917","EPOCH":"2022-02-14T15:06:42.264576","TIME_SYSTEM":"UTC","COUNTRY_CODE":"US","EPHEMERIS_TYPE":"0","CLASSIFICATION_TYPE":"U","NORAD_CAT_ID":"45770","ARG_OF_PERICENTER":"64.3248","MEAN_ELEMENT_THEORY":"SGP4","INCLINATION":"53.0546","ELEMENT_SET_NO":"999","MEAN_MOTION":"15.06394868","REF_FRAME":"TEME","SITE":"AFETR","APOAPSIS":"548.410","TLE_LINE2":"2 45770  53.0546  18.8206 0001705  64.3248 295.7917 15.06394868 93061","GP_ID":"195965621","RA_OF_ASC_NODE":"18.8206","DECAY_DATE":null},{"NORAD_CAT_ID":"45771","CLASSIFICATION_TYPE":"U","MEAN_ANOMALY":"297.9576","TIME_SYSTEM":"UTC","COUNTRY_CODE":"US","EPHEMERIS_TYPE":"0","EPOCH":"2022-02-14T18:08:31.924320","RA_OF_ASC_NODE":"18.2635","GP_ID":"195965871","TLE_LINE2":"2 45771  53.0553  18.2635 0001543  62.1570 297.9576 15.06393291 93080","DECAY_DATE":null,"MEAN_MOTION":"15.06393291","REF_FRAME":"TEME","APOAPSIS":"548.303","SITE":"AFETR","ELEMENT_SET_NO":"999","ARG_OF_PERICENTER":"62.1570","INCLINATION":"53.0553","MEAN_ELEMENT_THEORY":"SGP4","BSTAR":"0.00034690000000","FILE":"3300727","OBJECT_NAME":"STARLINK-1463","PERIOD":"95.593","SEMIMAJOR_AXIS":"6925.369","OBJECT_TYPE":"PAYLOAD","CENTER_NAME":"EARTH","MEAN_MOTION_DDOT":"0.0000000000000","LAUNCH_DATE":"2020-06-13","REV_AT_EPOCH":"9308","TLE_LINE1":"1 45771U 20038AT  22045.75592505  .00004888  00000-0  34690-3 0  9991","PERIAPSIS":"546.166","MEAN_MOTION_DOT":"0.00004888","ECCENTRICITY":"0.00015430","RCS_SIZE":"LARGE","OBJECT_ID":"2020-038AT"},{"NORAD_CAT_ID":"45772","CLASSIFICATION_TYPE":"U","MEAN_ANOMALY":"289.5070","EPOCH":"2022-02-14T14:41:31.350624","COUNTRY_CODE":"US","EPHEMERIS_TYPE":"0","TIME_SYSTEM":"UTC","TLE_LINE2":"2 45772  53.0549  18.9014 0001509  70.6082 289.5070 15.06395321 93079","RA_OF_ASC_NODE":"18.9014","GP_ID":"195964621","DECAY_DATE":null,"REF_FRAME":"TEME","MEAN_MOTION":"15.06395321","SITE":"AFETR","APOAPSIS":"548.273","ELEMENT_SET_NO":"999","ARG_OF_PERICENTER":"70.6082","MEAN_ELEMENT_THEORY":"SGP4","INCLINATION":"53.0549","BSTAR":"-0.00000597980000","FILE":"3300727","OBJECT_NAME":"STARLINK-1470","CENTER_NAME":"EARTH","OBJECT_TYPE":"PAYLOAD","PERIOD":"95.592","SEMIMAJOR_AXIS":"6925.363","MEAN_MOTION_DDOT":"0.0000000000000","REV_AT_EPOCH":"9307","LAUNCH_DATE":"2020-06-13","TLE_LINE1":"1 45772U 20038AU  22045.61216841 -.00000371  00000-0 -59798-5 0  9996","PERIAPSIS":"546.183","MEAN_MOTION_DOT":"-0.00000371","ECCENTRICITY":"0.00015090","OBJECT_ID":"2020-038AU","RCS_SIZE":"LARGE"},{"LAUNCH_DATE":"2020-06-13","REV_AT_EPOCH":"9303","TLE_LINE1":"1 45773U 20038AV  22045.33941134 -.00000048  00000-0  15697-4 0  9995","PERIAPSIS":"546.150","MEAN_MOTION_DOT":"-0.00000048","ECCENTRICITY":"0.00015720","OBJECT_ID":"2020-038AV","RCS_SIZE":"LARGE","BSTAR":"0.00001569700000","FILE":"3300472","OBJECT_NAME":"STARLINK-1482","OBJECT_TYPE":"PAYLOAD","CENTER_NAME":"EARTH","PERIOD":"95.593","SEMIMAJOR_AXIS":"6925.374","MEAN_MOTION_DDOT":"0.0000000000000","TLE_LINE2":"2 45773  53.0556  20.1283 0001572  57.8580 302.2561 15.06391773 93032","GP_ID":"195933886","RA_OF_ASC_NODE":"20.1283","DECAY_DATE":null,"REF_FRAME":"TEME","MEAN_MOTION":"15.06391773","SITE":"AFETR","APOAPSIS":"548.327","ELEMENT_SET_NO":"999","ARG_OF_PERICENTER":"57.8580","MEAN_ELEMENT_THEORY":"SGP4","INCLINATION":"53.0556","NORAD_CAT_ID":"45773","CLASSIFICATION_TYPE":"U","MEAN_ANOMALY":"302.2561","EPOCH":"2022-02-14T08:08:45.139776","TIME_SYSTEM":"UTC","COUNTRY_CODE":"US","EPHEMERIS_TYPE":"0"},{"CENTER_NAME":"EARTH","OBJECT_TYPE":"PAYLOAD","PERIOD":"95.593","SEMIMAJOR_AXIS":"6925.371","MEAN_MOTION_DDOT":"0.0000000000000","FILE":"3300727","OBJECT_NAME":"STARLINK-1485","BSTAR":"-0.00003439200000","ECCENTRICITY":"0.00015190","OBJECT_ID":"2020-038AW","RCS_SIZE":"LARGE","PERIAPSIS":"546.184","MEAN_MOTION_DOT":"-0.00000794","LAUNCH_DATE":"2020-06-13","REV_AT_EPOCH":"9307","TLE_LINE1":"1 45774U 20038AW  22045.64166250 -.00000794  00000-0 -34392-4 0  9990","MEAN_ANOMALY":"299.9908","EPOCH":"2022-02-14T15:23:59.640000","COUNTRY_CODE":"US","EPHEMERIS_TYPE":"0","TIME_SYSTEM":"UTC","CLASSIFICATION_TYPE":"U","NORAD_CAT_ID":"45774","ARG_OF_PERICENTER":"60.1231","MEAN_ELEMENT_THEORY":"SGP4","INCLINATION":"53.0569","ELEMENT_SET_NO":"999","REF_FRAME":"TEME","MEAN_MOTION":"15.06392580","SITE":"AFETR","APOAPSIS":"548.288","TLE_LINE2":"2 45774  53.0569  18.7639 0001519  60.1231 299.9908 15.06392580 93074","RA_OF_ASC_NODE":"18.7639","GP_ID":"195965121","DECAY_DATE":null}];
